{"type": "FeatureCollection", "features": [{"type": "Feature", "properties": {"norad_id": 2807, "name": "OPS 7218 (TRANSIT 16)", "group": "nnss", "lat": 86.5634242949934, "lon": -0.2408248689888731, "alt_km": 1052.1404938829874, "timestamp": "2025-12-03T20:47:58.492134+00:00", "meta": {"OBJECT_NAME": "OPS 7218 (TRANSIT 16)", "OBJECT_ID": "1967-048A", "EPOCH": "2025-12-03T12:06:54.103104", "MEAN_MOTION": 13.50719477, "ECCENTRICITY": 0.0021476, "INCLINATION": 89.6735, "RA_OF_ASC_NODE": 354.3226, "ARG_OF_PERICENTER": 138.9624, "MEAN_ANOMALY": 349.3026, "EPHEMERIS_TYPE": 0, "CLASSIFICATION_TYPE": "U", "NORAD_CAT_ID": 2807, "ELEMENT_SET_NO": 999, "REV_AT_EPOCH": 88151, "BSTAR": 0.00022718, "MEAN_MOTION_DOT": 1.57e-06, "MEAN_MOTION_DDOT": 0}, "tle": {"line1": "1 02807U 67048A   25337.50479286  .00000157  00000+0  22718-3 0  9998", "line2": "2 02807  89.6735 354.3226 0021476 138.9624 349.3026 13.50719477881519"}}, "geometry": {"type": "Point", "coordinates": [-0.2408248689888731, 86.5634242949934]}}, {"type": "Feature", "properties": {"norad_id": 2965, "name": "OPS 4947 (TRANSIT 17)", "group": "nnss", "lat": 64.23284555335206, "lon": 26.665747440464184, "alt_km": 1085.9786827065564, "timestamp": "2025-12-03T20:47:58.492161+00:00", "meta": {"OBJECT_NAME": "OPS 4947 (TRANSIT 17)", "OBJECT_ID": "1967-092A", "EPOCH": "2025-12-03T09:53:28.687776", "MEAN_MOTION": 13.53450021, "ECCENTRICITY": 0.0045778, "INCLINATION": 89.2506, "RA_OF_ASC_NODE": 25.1466, "ARG_OF_PERICENTER": 262.5485, "MEAN_ANOMALY": 108.3355, "EPHEMERIS_TYPE": 0, "CLASSIFICATION_TYPE": "U", "NORAD_CAT_ID": 2965, "ELEMENT_SET_NO": 999, "REV_AT_EPOCH": 86971, "BSTAR": 0.00024869, "MEAN_MOTION_DOT": 1.79e-06, "MEAN_MOTION_DDOT": 0}, "tle": {"line1": "1 02965U 67092A   25337.41213759  .00000179  00000+0  24869-3 0  9996", "line2": "2 02965  89.2506  25.1466 0045778 262.5485 108.3355 13.53450021869711"}}, "geometry": {"type": "Point", "coordinates": [26.665747440464184, 64.23284555335206]}}, {"type": "Feature", "properties": {"norad_id": 3133, "name": "OPS 7034 (TRANSIT 18)", "group": "nnss", "lat": -85.62605360919524, "lon": -86.03400532963558, "alt_km": 1063.636634158428, "timestamp": "2025-12-03T20:47:58.492175+00:00", "meta": {"OBJECT_NAME": "OPS 7034 (TRANSIT 18)", "OBJECT_ID": "1968-012A", "EPOCH": "2025-12-03T09:21:57.300192", "MEAN_MOTION": 13.51562445, "ECCENTRICITY": 0.0072979, "INCLINATION": 90.0269, "RA_OF_ASC_NODE": 273.6128, "ARG_OF_PERICENTER": 196.3448, "MEAN_ANOMALY": 280.6016, "EPHEMERIS_TYPE": 0, "CLASSIFICATION_TYPE": "U", "NORAD_CAT_ID": 3133, "ELEMENT_SET_NO": 999, "REV_AT_EPOCH": 56792, "BSTAR": 0.00017779, "MEAN_MOTION_DOT": 1.27e-06, "MEAN_MOTION_DDOT": 0}, "tle": {"line1": "1 03133U 68012A   25337.39024653  .00000127  00000+0  17779-3 0  9992", "line2": "2 03133  90.0269 273.6128 0072979 196.3448 280.6016 13.51562445567924"}}, "geometry": {"type": "Point", "coordinates": [-86.03400532963558, -85.62605360919524]}}, {"type": "Feature", "properties": {"norad_id": 4507, "name": "NNSS 19 (TRANSIT 19)", "group": "nnss", "lat": -71.26827959821149, "lon": 54.51101494364789, "alt_km": 1025.3220270273741, "timestamp": "2025-12-03T20:47:58.492188+00:00", "meta": {"OBJECT_NAME": "NNSS 19 (TRANSIT 19)", "OBJECT_ID": "1970-067A", "EPOCH": "2025-12-03T10:39:33.759936", "MEAN_MOTION": 13.51311161, "ECCENTRICITY": 0.0171187, "INCLINATION": 90.0056, "RA_OF_ASC_NODE": 234.5273, "ARG_OF_PERICENTER": 320.5051, "MEAN_ANOMALY": 38.3724, "EPHEMERIS_TYPE": 0, "CLASSIFICATION_TYPE": "U", "NORAD_CAT_ID": 4507, "ELEMENT_SET_NO": 999, "REV_AT_EPOCH": 72096, "BSTAR": 0.00028364, "MEAN_MOTION_DOT": 2.1e-06, "MEAN_MOTION_DDOT": 0}, "tle": {"line1": "1 04507U 70067A   25337.44414074  .00000210  00000+0  28364-3 0  9992", "line2": "2 04507  90.0056 234.5273 0171187 320.5051  38.3724 13.51311161720969"}}, "geometry": {"type": "Point", "coordinates": [54.51101494364789, -71.26827959821149]}}, {"type": "Feature", "properties": {"norad_id": 6909, "name": "NNSS 20 (TRANSIT 20)", "group": "nnss", "lat": 42.31195627348176, "lon": -104.68129785064387, "alt_km": 935.800344894802, "timestamp": "2025-12-03T20:47:58.492200+00:00", "meta": {"OBJECT_NAME": "NNSS 20 (TRANSIT 20)", "OBJECT_ID": "1973-081A", "EPOCH": "2025-12-03T11:50:21.755040", "MEAN_MOTION": 13.71427816, "ECCENTRICITY": 0.0156481, "INCLINATION": 89.8557, "RA_OF_ASC_NODE": 255.1929, "ARG_OF_PERICENTER": 105.6968, "MEAN_ANOMALY": 256.1519, "EPHEMERIS_TYPE": 0, "CLASSIFICATION_TYPE": "U", "NORAD_CAT_ID": 6909, "ELEMENT_SET_NO": 999, "REV_AT_EPOCH": 80234, "BSTAR": 0.00028959, "MEAN_MOTION_DOT": 2.96e-06, "MEAN_MOTION_DDOT": 0}, "tle": {"line1": "1 06909U 73081A   25337.49330735  .00000296  00000+0  28959-3 0  9999", "line2": "2 06909  89.8557 255.1929 0156481 105.6968 256.1519 13.71427816802347"}}, "geometry": {"type": "Point", "coordinates": [-104.68129785064387, 42.31195627348176]}}, {"type": "Feature", "properties": {"norad_id": 10457, "name": "TRANSAT", "group": "nnss", "lat": -26.227477429883912, "lon": 78.7376724625608, "alt_km": 1090.4406871914225, "timestamp": "2025-12-03T20:47:58.492211+00:00", "meta": {"OBJECT_NAME": "TRANSAT", "OBJECT_ID": "1977-106A", "EPOCH": "2025-12-03T08:47:40.611264", "MEAN_MOTION": 13.48941256, "ECCENTRICITY": 0.0024549, "INCLINATION": 89.6482, "RA_OF_ASC_NODE": 78.9288, "ARG_OF_PERICENTER": 217.1657, "MEAN_ANOMALY": 208.8093, "EPHEMERIS_TYPE": 0, "CLASSIFICATION_TYPE": "U", "NORAD_CAT_ID": 10457, "ELEMENT_SET_NO": 999, "REV_AT_EPOCH": 36617, "BSTAR": 0.00014772, "MEAN_MOTION_DOT": 1.03e-06, "MEAN_MOTION_DDOT": 0}, "tle": {"line1": "1 10457U 77106A   25337.36644226  .00000103  00000+0  14772-3 0  9998", "line2": "2 10457  89.6482  78.9288 0024549 217.1657 208.8093 13.48941256366177"}}, "geometry": {"type": "Point", "coordinates": [78.7376724625608, -26.227477429883912]}}, {"type": "Feature", "properties": {"norad_id": 12458, "name": "NOVA 1", "group": "nnss", "lat": -26.331710683128065, "lon": 91.43735058127635, "alt_km": 1188.2784202104312, "timestamp": "2025-12-03T20:47:58.492222+00:00", "meta": {"OBJECT_NAME": "NOVA 1", "OBJECT_ID": "1981-044A", "EPOCH": "2025-12-03T08:32:59.363232", "MEAN_MOTION": 13.2327685, "ECCENTRICITY": 0.0015599, "INCLINATION": 89.8522, "RA_OF_ASC_NODE": 91.5178, "ARG_OF_PERICENTER": 127.0923, "MEAN_ANOMALY": 296.7011, "EPHEMERIS_TYPE": 0, "CLASSIFICATION_TYPE": "U", "NORAD_CAT_ID": 12458, "ELEMENT_SET_NO": 999, "REV_AT_EPOCH": 15062, "BSTAR": 0.00015558, "MEAN_MOTION_DOT": 7.5e-07, "MEAN_MOTION_DDOT": 0}, "tle": {"line1": "1 12458U 81044A   25337.35624263  .00000075  00000+0  15558-3 0  9996", "line2": "2 12458  89.8522  91.5178 0015599 127.0923 296.7011 13.23276850150627"}}, "geometry": {"type": "Point", "coordinates": [91.43735058127635, -26.331710683128065]}}, {"type": "Feature", "properties": {"norad_id": 15362, "name": "NOVA 3", "group": "nnss", "lat": -33.89189410209133, "lon": -99.6522373005433, "alt_km": 1198.1442825302602, "timestamp": "2025-12-03T20:47:58.492249+00:00", "meta": {"OBJECT_NAME": "NOVA 3", "OBJECT_ID": "1984-110A", "EPOCH": "2025-12-03T12:30:59.346144", "MEAN_MOTION": 13.23042704, "ECCENTRICITY": 0.0031242, "INCLINATION": 90.1226, "RA_OF_ASC_NODE": 80.4261, "ARG_OF_PERICENTER": 357.8421, "MEAN_ANOMALY": 13.2842, "EPHEMERIS_TYPE": 0, "CLASSIFICATION_TYPE": "U", "NORAD_CAT_ID": 15362, "ELEMENT_SET_NO": 999, "REV_AT_EPOCH": 98577, "BSTAR": 7.1265e-05, "MEAN_MOTION_DOT": 3.8e-07, "MEAN_MOTION_DDOT": 0}, "tle": {"line1": "1 15362U 84110A   25337.52152021  .00000038  00000+0  71265-4 0  9994", "line2": "2 15362  90.1226  80.4261 0031242 357.8421  13.2842 13.23042704985774"}}, "geometry": {"type": "Point", "coordinates": [-99.6522373005433, -33.89189410209133]}}, {"type": "Feature", "properties": {"norad_id": 15935, "name": "OSCAR 30", "group": "nnss", "lat": -60.55122644424675, "lon": -80.58965705565072, "alt_km": 1214.7132226731783, "timestamp": "2025-12-03T20:47:58.492287+00:00", "meta": {"OBJECT_NAME": "OSCAR 30", "OBJECT_ID": "1985-066A", "EPOCH": "2025-12-03T09:10:03.206784", "MEAN_MOTION": 13.36075894, "ECCENTRICITY": 0.016936, "INCLINATION": 90.1646, "RA_OF_ASC_NODE": 99.6942, "ARG_OF_PERICENTER": 110.0242, "MEAN_ANOMALY": 319.1865, "EPHEMERIS_TYPE": 0, "CLASSIFICATION_TYPE": "U", "NORAD_CAT_ID": 15935, "ELEMENT_SET_NO": 999, "REV_AT_EPOCH": 96328, "BSTAR": 0.00022149, "MEAN_MOTION_DOT": 1.33e-06, "MEAN_MOTION_DDOT": 0}, "tle": {"line1": "1 15935U 85066A   25337.38198156  .00000133  00000+0  22149-3 0  9996", "line2": "2 15935  90.1646  99.6942 0169360 110.0242 319.1865 13.36075894963282"}}, "geometry": {"type": "Point", "coordinates": [-80.58965705565072, -60.55122644424675]}}, {"type": "Feature", "properties": {"norad_id": 15936, "name": "OSCAR 24", "group": "nnss", "lat": -41.94746134521746, "lon": 92.30895435967123, "alt_km": 1248.3980471011282, "timestamp": "2025-12-03T20:47:58.492309+00:00", "meta": {"OBJECT_NAME": "OSCAR 24", "OBJECT_ID": "1985-066B", "EPOCH": "2025-12-03T08:43:31.664352", "MEAN_MOTION": 13.35933518, "ECCENTRICITY": 0.0170371, "INCLINATION": 90.1786, "RA_OF_ASC_NODE": 92.1395, "ARG_OF_PERICENTER": 116.5141, "MEAN_ANOMALY": 304.2883, "EPHEMERIS_TYPE": 0, "CLASSIFICATION_TYPE": "U", "NORAD_CAT_ID": 15936, "ELEMENT_SET_NO": 999, "REV_AT_EPOCH": 96518, "BSTAR": 0.00015688, "MEAN_MOTION_DOT": 9.7e-07, "MEAN_MOTION_DDOT": 0}, "tle": {"line1": "1 15936U 85066B   25337.36356093  .00000097  00000+0  15688-3 0  9990", "line2": "2 15936  90.1786  92.1395 0170371 116.5141 304.2883 13.35933518965182"}}, "geometry": {"type": "Point", "coordinates": [92.30895435967123, -41.94746134521746]}}]}